{
  "type": "FeatureCollection",
  "features": [
    {
      "type": "Feature",
      "properties": {
        "norad_id": 66548,
        "name": "CZ-2C R/B",
        "group": "last-30-days",
        "lat": 15.91096818506954,
        "lon": 31.749296149115388,
        "alt_km": 502.2782738567639,
        "timestamp": "2025-12-02T17:49:10.800475+00:00",
        "meta_object_name": "CZ-2C R/B",
        "meta_object_id": "2025-266D",
        "meta_epoch": "2025-12-02T11:27:32.023872",
        "meta_mean_motion": 15.29821049,
        "meta_eccentricity": 0.0084839,
        "meta_inclination": 52.055,
        "meta_ra_of_asc_node": 20.1598,
        "meta_arg_of_pericenter": 138.1426,
        "meta_mean_anomaly": 222.6089,
        "meta_ephemeris_type": 0,
        "meta_classification_type": "U",
        "meta_norad_cat_id": 66548,
        "meta_element_set_no": 999,
        "meta_rev_at_epoch": 204,
        "meta_bstar": 0.00047166,
        "meta_mean_motion_dot": 0.0001505,
        "meta_mean_motion_ddot": 0,
        "tle_line1": "1 66548U 25266D   25336.47745398  .00015050  00000+0  47166-3 0  9993",
        "tle_line2": "2 66548  52.0550  20.1598 0084839 138.1426 222.6089 15.29821049  2046"
      },
      "geometry": {
        "type": "Point",
        "coordinates": [
          31.749296149115388,
          15.91096818506954
        ]
      }
    },
    {
      "type": "Feature",
      "properties": {
        "norad_id": 66549,
        "name": "SHIJIAN-28",
        "group": "last-30-days",
        "lat": -14.474017111222304,
        "lon": -174.9253088968718,
        "alt_km": 4919.704838332277,
        "timestamp": "2025-12-02T17:49:10.800486+00:00",
        "meta_object_name": "SHIJIAN-28",
        "meta_object_id": "2025-277A",
        "meta_epoch": "2025-11-30T18:06:43.124256",
        "meta_mean_motion": 2.28019775,
        "meta_eccentricity": 0.7300519,
        "meta_inclination": 14.4344,
        "meta_ra_of_asc_node": 275.4056,
        "meta_arg_of_pericenter": 179.5026,
        "meta_mean_anomaly": 182.358,
        "meta_ephemeris_type": 0,
        "meta_classification_type": "U",
        "meta_norad_cat_id": 66549,
        "meta_element_set_no": 999,
        "meta_rev_at_epoch": 4,
        "meta_bstar": 0.00062085,
        "meta_mean_motion_dot": 6.315e-05,
        "meta_mean_motion_ddot": 0,
        "tle_line1": "1 66549U 25277A   25334.75466579  .00006315  00000+0  62085-3 0  9997",
        "tle_line2": "2 66549  14.4344 275.4056 7300519 179.5026 182.3580  2.28019775    48"
      },
      "geometry": {
        "type": "Point",
        "coordinates": [
          -174.9253088968718,
          -14.474017111222304
        ]
      }
    },
    {
      "type": "Feature",
      "properties": {
        "norad_id": 66550,
        "name": "CZ-7A R/B",
        "group": "last-30-days",
        "lat": -4.322264608464288,
        "lon": -102.35910556983863,
        "alt_km": 29873.82891973895,
        "timestamp": "2025-12-02T17:49:10.800499+00:00",
        "meta_object_name": "CZ-7A R/B",
        "meta_object_id": "2025-277B",
        "meta_epoch": "2025-12-01T03:57:29.558880",
        "meta_mean_motion": 2.40161271,
        "meta_eccentricity": 0.72362879,
        "meta_inclination": 14.4278,
        "meta_ra_of_asc_node": 275.378,
        "meta_arg_of_pericenter": 178.5774,
        "meta_mean_anomaly": 186.2906,
        "meta_ephemeris_type": 0,
        "meta_classification_type": "U",
        "meta_norad_cat_id": 66550,
        "meta_element_set_no": 999,
        "meta_rev_at_epoch": 5,
        "meta_bstar": 4.4603974e-05,
        "meta_mean_motion_dot": 0.00016399,
        "meta_mean_motion_ddot": -7.1945e-08,
        "tle_line1": "1 66550U 25277B   25335.16492545  .00016399 -71945-7  44604-4 0  9993",
        "tle_line2": "2 66550  14.4278 275.3780 7236287 178.5774 186.2906  2.40161271    57"
      },
      "geometry": {
        "type": "Point",
        "coordinates": [
          -102.35910556983863,
          -4.322264608464288
        ]
      }
    },
    {
      "type": "Feature",
      "properties": {
        "norad_id": 66554,
        "name": "GLOBAL-33",
        "group": "last-30-days",
        "lat": -28.5541548326482,
        "lon": 77.50609942909055,
        "alt_km": 471.13460813457186,
        "timestamp": "2025-12-02T17:49:10.800509+00:00",
        "meta_object_name": "GLOBAL-33",
        "meta_object_id": "2025-267A",
        "meta_epoch": "2025-12-01T20:06:06.812640",
        "meta_mean_motion": 15.31226532,
        "meta_eccentricity": 0.00056758,
        "meta_inclination": 42.0184,
        "meta_ra_of_asc_node": 119.9156,
        "meta_arg_of_pericenter": 335.5571,
        "meta_mean_anomaly": 24.4997,
        "meta_ephemeris_type": 0,
        "meta_classification_type": "U",
        "meta_norad_cat_id": 66554,
        "meta_element_set_no": 999,
        "meta_rev_at_epoch": 173,
        "meta_bstar": 0.00042244628,
        "meta_mean_motion_dot": 0.00012793,
        "meta_mean_motion_ddot": 0,
        "tle_line1": "1 66554U 25267A   25335.83757885  .00012793  00000+0  42245-3 0  9998",
        "tle_line2": "2 66554  42.0184 119.9156 0005675 335.5571  24.4997 15.31226532  1737"
      },
      "geometry": {
        "type": "Point",
        "coordinates": [
          77.50609942909055,
          -28.5541548326482
        ]
      }
    },
    {
      "type": "Feature",
      "properties": {
        "norad_id": 66555,
        "name": "ELECTRON KICK STAGE R/B",
        "group": "last-30-days",
        "lat": -10.565456139311813,
        "lon": 102.66648029153603,
        "alt_km": 465.43194891386065,
        "timestamp": "2025-12-02T17:49:10.800524+00:00",
        "meta_object_name": "ELECTRON KICK STAGE R/B",
        "meta_object_id": "2025-267B",
        "meta_epoch": "2025-12-02T02:14:34.409184",
        "meta_mean_motion": 15.32043166,
        "meta_eccentricity": 0.00074806,
        "meta_inclination": 42.0172,
        "meta_ra_of_asc_node": 118.3743,
        "meta_arg_of_pericenter": 336.8276,
        "meta_mean_anomaly": 23.2223,
        "meta_ephemeris_type": 0,
        "meta_classification_type": "U",
        "meta_norad_cat_id": 66555,
        "meta_element_set_no": 999,
        "meta_rev_at_epoch": 177,
        "meta_bstar": 0.00085113496,
        "meta_mean_motion_dot": 0.00026769,
        "meta_mean_motion_ddot": 0,
        "tle_line1": "1 66555U 25267B   25336.09345381  .00026769  00000+0  85113-3 0  9991",
        "tle_line2": "2 66555  42.0172 118.3743 0007480 336.8276  23.2223 15.32043166  1776"
      },
      "geometry": {
        "type": "Point",
        "coordinates": [
          102.66648029153603,
          -10.565456139311813
        ]
      }
    },
    {
      "type": "Feature",
      "properties": {
        "norad_id": 66557,
        "name": "STARLINK-35699",
        "group": "last-30-days",
        "lat": 37.14955349389792,
        "lon": -125.13622055235707,
        "alt_km": 334.9640862353672,
        "timestamp": "2025-12-02T17:49:10.800538+00:00",
        "meta_object_name": "STARLINK-35699",
        "meta_object_id": "2025-268A",
        "meta_epoch": "2025-12-02T12:00:05.998752",
        "meta_mean_motion": 15.77523231,
        "meta_eccentricity": 0.000162,
        "meta_inclination": 42.9972,
        "meta_ra_of_asc_node": 181.9337,
        "meta_arg_of_pericenter": 268.8321,
        "meta_mean_anomaly": 215.5153,
        "meta_ephemeris_type": 0,
        "meta_classification_type": "U",
        "meta_norad_cat_id": 66557,
        "meta_element_set_no": 999,
        "meta_rev_at_epoch": 302,
        "meta_bstar": -0.0098568,
        "meta_mean_motion_dot": -0.01489267,
        "meta_mean_motion_ddot": 0,
        "tle_line1": "1 66557U 25268A   25336.50006943 -.01489267  00000+0 -98568-2 0  9994",
        "tle_line2": "2 66557  42.9972 181.9337 0001620 268.8321 215.5153 15.77523231  3028"
      },
      "geometry": {
        "type": "Point",
        "coordinates": [
          -125.13622055235707,
          37.14955349389792
        ]
      }
    },
    {
      "type": "Feature",
      "properties": {
        "norad_id": 66558,
        "name": "STARLINK-35695",
        "group": "last-30-days",
        "lat": 37.9039833706331,
        "lon": -122.86587587979886,
        "alt_km": 334.9352586969799,
        "timestamp": "2025-12-02T17:49:10.800548+00:00",
        "meta_object_name": "STARLINK-35695",
        "meta_object_id": "2025-268B",
        "meta_epoch": "2025-12-02T12:00:05.998752",
        "meta_mean_motion": 15.77513495,
        "meta_eccentricity": 0.0001655,
        "meta_inclination": 42.9974,
        "meta_ra_of_asc_node": 181.929,
        "meta_arg_of_pericenter": 268.4896,
        "meta_mean_anomaly": 217.8227,
        "meta_ephemeris_type": 0,
        "meta_classification_type": "U",
        "meta_norad_cat_id": 66558,
        "meta_element_set_no": 999,
        "meta_rev_at_epoch": 302,
        "meta_bstar": -0.0099397,
        "meta_mean_motion_dot": -0.01499716,
        "meta_mean_motion_ddot": 0,
        "tle_line1": "1 66558U 25268B   25336.50006943 -.01499716  00000+0 -99397-2 0  9996",
        "tle_line2": "2 66558  42.9974 181.9290 0001655 268.4896 217.8227 15.77513495  3028"
      },
      "geometry": {
        "type": "Point",
        "coordinates": [
          -122.86587587979886,
          37.9039833706331
        ]
      }
    }
  ]
}